[
    {
        "Altitude(m)": 703335.3722453854,
        "Argument of Periapsis(deg)": 0.0011390121186627068,
        "Eccentricity": 0.0,
        "Inclination(deg)": 45.0,
        "Latitude(deg)": 0.7601732648411992,
        "Longitude(deg)": -134.2935146176218,
        "Mean Anomaly(deg)": 1.1533216647480466,
        "RAAN(deg)": 324.99892480585413,
        "Satellite Name": "Constellation 1 1430",
        "Satellite Number": 1430,
        "Semi-Major Axis(m)": 7083131.272910544,
        "Time(s)": 19
    },
    {
        "Altitude(m)": 703330.1407211036,
        "Argument of Periapsis(deg)": 0.0011989601249081123,
        "Eccentricity": 0.0,
        "Inclination(deg)": 45.0,
        "Latitude(deg)": 0.8033861955826745,
        "Longitude(deg)": -134.25475649657744,
        "Mean Anomaly(deg)": 1.214022804997984,
        "RAAN(deg)": 324.99886821668855,
        "Satellite Name": "Constellation 1 1430",
        "Satellite Number": 1430,
        "Semi-Major Axis(m)": 7083131.272910544,
        "Time(s)": 20
    },
    {
        "Altitude(m)": 703324.9299554692,
        "Argument of Periapsis(deg)": 0.001258908131153518,
        "Eccentricity": 0.0,
        "Inclination(deg)": 45.0,
        "Latitude(deg)": 0.8465987314311183,
        "Longitude(deg)": -134.21599740939826,
        "Mean Anomaly(deg)": 1.2747239452478707,
        "RAAN(deg)": 324.998811627523,
        "Satellite Name": "Constellation 1 1430",
        "Satellite Number": 1430,
        "Semi-Major Axis(m)": 7083131.272910544,
        "Time(s)": 21
    },
    {
        "Altitude(m)": 703319.7399531004,
        "Argument of Periapsis(deg)": 0.0013188561373989236,
        "Eccentricity": 0.0,
        "Inclination(deg)": 45.0,
        "Latitude(deg)": 0.8898108474277056,
        "Longitude(deg)": -134.17723747585626,
        "Mean Anomaly(deg)": 1.335425085497757,
        "RAAN(deg)": 324.99875503835744,
        "Satellite Name": "Constellation 1 1430",
        "Satellite Number": 1430,
        "Semi-Major Axis(m)": 7083131.272910544,
        "Time(s)": 22
    },
    {
        "Altitude(m)": 703314.570718504,
        "Argument of Periapsis(deg)": 0.0013788041436443293,
        "Eccentricity": 0.0,
        "Inclination(deg)": 45.0,
        "Latitude(deg)": 0.9330225186107981,
        "Longitude(deg)": -134.13847631142988,
        "Mean Anomaly(deg)": 1.3961262257476437,
        "RAAN(deg)": 324.9986984491919,
        "Satellite Name": "Constellation 1 1430",
        "Satellite Number": 1430,
        "Semi-Major Axis(m)": 7083131.272910544,
        "Time(s)": 23
    },
    {
        "Altitude(m)": 703309.4222561194,
        "Argument of Periapsis(deg)": 0.001438752149889735,
        "Eccentricity": 0.0,
        "Inclination(deg)": 45.0,
        "Latitude(deg)": 0.9762337200172904,
        "Longitude(deg)": -134.09971403588608,
        "Mean Anomaly(deg)": 1.456827365997581,
        "RAAN(deg)": 324.9986418600263,
        "Satellite Name": "Constellation 1 1430",
        "Satellite Number": 1430,
        "Semi-Major Axis(m)": 7083131.272910544,
        "Time(s)": 24
    },
    {
        "Altitude(m)": 703304.2945702735,
        "Argument of Periapsis(deg)": 0.0014987001561351404,
        "Eccentricity": 0.0,
        "Inclination(deg)": 45.0,
        "Latitude(deg)": 1.019444426681561,
        "Longitude(deg)": -134.06095060089189,
        "Mean Anomaly(deg)": 1.5175285062474673,
        "RAAN(deg)": 324.9985852708607,
        "Satellite Name": "Constellation 1 1430",
        "Satellite Number": 1430,
        "Semi-Major Axis(m)": 7083131.272910544,
        "Time(s)": 25
    },
    {
        "Altitude(m)": 703299.1876652124,
        "Argument of Periapsis(deg)": 0.001558648162380546,
        "Eccentricity": 0.0,
        "Inclination(deg)": 45.0,
        "Latitude(deg)": 1.0626546136356196,
        "Longitude(deg)": -134.02218595811166,
        "Mean Anomaly(deg)": 1.5782296464973538,
        "RAAN(deg)": 324.9985286816952,
        "Satellite Name": "Constellation 1 1430",
        "Satellite Number": 1430,
        "Semi-Major Axis(m)": 7083131.272910544,
        "Time(s)": 26
    },
    {
        "Altitude(m)": 703294.1015450736,
        "Argument of Periapsis(deg)": 0.0016185961686259519,
        "Eccentricity": 0.0,
        "Inclination(deg)": 45.0,
        "Latitude(deg)": 1.105864255909019,
        "Longitude(deg)": -133.98342005920676,
        "Mean Anomaly(deg)": 1.6389307867472402,
        "RAAN(deg)": 324.9984720925296,
        "Satellite Name": "Constellation 1 1430",
        "Satellite Number": 1430,
        "Semi-Major Axis(m)": 7083131.272910544,
        "Time(s)": 27
    },
    {
        "Altitude(m)": 703289.0362139118,
        "Argument of Periapsis(deg)": 0.0016785441748713573,
        "Eccentricity": 0.0,
        "Inclination(deg)": 45.0,
        "Latitude(deg)": 1.1490733285287604,
        "Longitude(deg)": -133.94465285583553,
        "Mean Anomaly(deg)": 1.6996319269971778,
        "RAAN(deg)": 324.9984155033641,
        "Satellite Name": "Constellation 1 1430",
        "Satellite Number": 1430,
        "Semi-Major Axis(m)": 7083131.272910544,
        "Time(s)": 28
    },
    {
        "Altitude(m)": 703283.9916756881,
        "Argument of Periapsis(deg)": 0.001738492181116763,
        "Eccentricity": 0.0,
        "Inclination(deg)": 45.0,
        "Latitude(deg)": 1.1922818065192053,
        "Longitude(deg)": -133.9058842996531,
        "Mean Anomaly(deg)": 1.760333067247064,
        "RAAN(deg)": 324.9983589141985,
        "Satellite Name": "Constellation 1 1430",
        "Satellite Number": 1430,
        "Semi-Major Axis(m)": 7083131.272910544,
        "Time(s)": 29
    },
    {
        "Altitude(m)": 703278.9679342633,
        "Argument of Periapsis(deg)": 0.0017984401873621684,
        "Eccentricity": 0.0,
        "Inclination(deg)": 45.0,
        "Latitude(deg)": 1.2354896649022233,
        "Longitude(deg)": -133.86711451040858,
        "Mean Anomaly(deg)": 1.8210342074969506,
        "RAAN(deg)": 324.99830232503285,
        "Satellite Name": "Constellation 1 1430",
        "Satellite Number": 1430,
        "Semi-Major Axis(m)": 7083131.272910544,
        "Time(s)": 30
    },
    {
        "Altitude(m)": 703273.9649934123,
        "Argument of Periapsis(deg)": 0.0018583881936075745,
        "Eccentricity": 0.0,
        "Inclination(deg)": 45.0,
        "Latitude(deg)": 1.2786968786961437,
        "Longitude(deg)": -133.8283431035563,
        "Mean Anomaly(deg)": 1.881735347746888,
        "RAAN(deg)": 324.99824573586733,
        "Satellite Name": "Constellation 1 1430",
        "Satellite Number": 1430,
        "Semi-Major Axis(m)": 7083131.272910544,
        "Time(s)": 31
    },
    {
        "Altitude(m)": 703268.9828568067,
        "Argument of Periapsis(deg)": 0.0019183361998529795,
        "Eccentricity": 0.0,
        "Inclination(deg)": 45.0,
        "Latitude(deg)": 1.3219034229170994,
        "Longitude(deg)": -133.7895701988383,
        "Mean Anomaly(deg)": 1.9424364879967746,
        "RAAN(deg)": 324.99818914670175,
        "Satellite Name": "Constellation 1 1430",
        "Satellite Number": 1430,
        "Semi-Major Axis(m)": 7083131.272910544,
        "Time(s)": 32
    },
    {
        "Altitude(m)": 703264.0215280331,
        "Argument of Periapsis(deg)": 0.0019782842060983856,
        "Eccentricity": 0.0,
        "Inclination(deg)": 45.0,
        "Latitude(deg)": 1.3651092725779845,
        "Longitude(deg)": -133.7507957478962,
        "Mean Anomaly(deg)": 2.003137628246661,
        "RAAN(deg)": 324.9981325575362,
        "Satellite Name": "Constellation 1 1430",
        "Satellite Number": 1430,
        "Semi-Major Axis(m)": 7083131.272910544,
        "Time(s)": 33
    },
    {
        "Altitude(m)": 703259.0810105837,
        "Argument of Periapsis(deg)": 0.0020382322123437906,
        "Eccentricity": 0.0,
        "Inclination(deg)": 45.0,
        "Latitude(deg)": 1.4083144026885908,
        "Longitude(deg)": -133.7120197023677,
        "Mean Anomaly(deg)": 2.0638387684965473,
        "RAAN(deg)": 324.99807596837064,
        "Satellite Name": "Constellation 1 1430",
        "Satellite Number": 1430,
        "Semi-Major Axis(m)": 7083131.272910544,
        "Time(s)": 34
    },
    {
        "Altitude(m)": 703254.1613078472,
        "Argument of Periapsis(deg)": 0.002098180218589197,
        "Eccentricity": 0.0,
        "Inclination(deg)": 45.0,
        "Latitude(deg)": 1.4515187882555303,
        "Longitude(deg)": -133.67324201388692,
        "Mean Anomaly(deg)": 2.1245399087464847,
        "RAAN(deg)": 324.998019379205,
        "Satellite Name": "Constellation 1 1430",
        "Satellite Number": 1430,
        "Semi-Major Axis(m)": 7083131.272910544,
        "Time(s)": 35
    },
    {
        "Altitude(m)": 703249.262423134,
        "Argument of Periapsis(deg)": 0.002158128224834602,
        "Eccentricity": 0.0,
        "Inclination(deg)": 45.0,
        "Latitude(deg)": 1.494722404282135,
        "Longitude(deg)": -133.63446263408377,
        "Mean Anomaly(deg)": 2.1852410489963714,
        "RAAN(deg)": 324.9979627900395,
        "Satellite Name": "Constellation 1 1430",
        "Satellite Number": 1430,
        "Semi-Major Axis(m)": 7083131.272910544,
        "Time(s)": 36
    },
    {
        "Altitude(m)": 703244.3843596457,
        "Argument of Periapsis(deg)": 0.002218076231080008,
        "Eccentricity": 0.0,
        "Inclination(deg)": 45.0,
        "Latitude(deg)": 1.5379252257686096,
        "Longitude(deg)": -133.59568168268146,
        "Mean Anomaly(deg)": 2.245942189246258,
        "RAAN(deg)": 324.9979062008739,
        "Satellite Name": "Constellation 1 1430",
        "Satellite Number": 1430,
        "Semi-Major Axis(m)": 7083131.272910544,
        "Time(s)": 37
    }
]